GLOBALSTAR M057         
1 25943U 99058A   25070.51258045 -.00000052  00000+0  36868-3 0  9999
2 25943  51.9969 265.4045 0002898 157.9540 202.1435 12.24815553154966
GLOBALSTAR M059         
1 25944U 99058B   25070.57302550 -.00000070  00000+0  19745-3 0  9992
2 25944  52.0001 111.2496 0000835 129.6568  29.7569 11.99974426151075
GLOBALSTAR M056         
1 25945U 99058C   25070.54451255 -.00000010  00000+0  90286-3 0  9990
2 25945  51.9947 115.7917 0000679   4.0115 144.2433 12.04777431150852
GLOBALSTAR M031         
1 25946U 99058D   25070.62256402 -.00000141  00000+0 -50778-3 0  9995
2 25946  51.9993  13.7514 0001486 356.4945 175.1022 12.16030707152676
GLOBALSTAR M039         
1 25961U 99062A   25070.61474116 -.00000097  00000+0  37280-4 0  9993
2 25961  51.9833 205.9018 0003462 127.7924 232.3256 12.62320557167893
GLOBALSTAR M034         
1 25962U 99062B   25070.47686603 -.00000044  00000+0  57819-3 0  9995
2 25962  51.9854 265.3803 0013636 212.9597 157.4263 11.79445535126864
GLOBALSTAR M029         
1 25963U 99062C   25070.57846780 -.00000075  00000+0  14314-3 0  9998
2 25963  51.9840 359.3558 0002178 295.2374 236.5070 11.99892349157407
GLOBALSTAR M061         
1 25964U 99062D   25070.46196008 -.00000037  00000+0  70279-3 0  9998
2 25964  51.9780  88.1529 0006225 141.2236   7.8029 11.76771722109675
